[{"OBJECT_NAME":"NUSAT-41 (C PAYNE-G)","OBJECT_ID":"2023-084N","EPOCH":"2026-03-09T21:55:54.837696","MEAN_MOTION":15.29680045,"ECCENTRICITY":0.00062175,"INCLINATION":97.5351,"RA_OF_ASC_NODE":204.1011,"ARG_OF_PERICENTER":322.2064,"MEAN_ANOMALY":37.8738,"EPHEMERIS_TYPE":0,"CLASSIFICATION_TYPE":"U","NORAD_CAT_ID":56944,"ELEMENT_SET_NO":999,"REV_AT_EPOCH":15260,"BSTAR":0.00059912824,"MEAN_MOTION_DOT":0.0001718,"MEAN_MOTION_DDOT":0},{"OBJECT_NAME":"STARLINK-30935","OBJECT_ID":"2023-183U","EPOCH":"2026-03-09T22:00:01.999584","MEAN_MOTION":15.26713327,"ECCENTRICITY":0.00014788,"INCLINATION":43.0006,"RA_OF_ASC_NODE":40.315,"ARG_OF_PERICENTER":261.288,"MEAN_ANOMALY":298.475,"EPHEMERIS_TYPE":0,"CLASSIFICATION_TYPE":"U","NORAD_CAT_ID":58455,"ELEMENT_SET_NO":999,"REV_AT_EPOCH":578,"BSTAR":0.0016210219,"MEAN_MOTION_DOT":0.00043443,"MEAN_MOTION_DDOT":0}]
